Satellite: AO-07
Catalog number: 07530
Epoch time:      06249.66898568
Element set:    0676
Inclination:      101.5610 deg
RA of node:       290.5427 deg
Eccentricity:    0.0012168
Arg of perigee:   088.1493 deg
Mean anomaly:     272.0967 deg
Mean motion:   12.53571538 rev/day
Decay rate:       -2.8e-07 rev/day^2
Epoch rev:           45559
Checksum:              335

Satellite: AO-10
Catalog number: 14129
Epoch time:      06249.40150486
Element set:     311
Inclination:      027.3317 deg
RA of node:       317.0133 deg
Eccentricity:    0.6029013
Arg of perigee:   315.3720 deg
Mean anomaly:     009.7501 deg
Mean motion:   02.05867889 rev/day
Decay rate:       -5.0e-08 rev/day^2
Epoch rev:           17472
Checksum:              269

Satellite: UO-11
Catalog number: 14781
Epoch time:      06249.61509359
Element set:    0168
Inclination:      098.2076 deg
RA of node:       261.5628 deg
Eccentricity:    0.0009536
Arg of perigee:   010.2925 deg
Mean anomaly:     349.8476 deg
Mean motion:   14.79458973 rev/day
Decay rate:       4.16e-06 rev/day^2
Epoch rev:           20780
Checksum:              337

Satellite: RS-10/11
Catalog number: 18129
Epoch time:      06249.59857817
Element set:    0095
Inclination:      082.9231 deg
RA of node:       267.9335 deg
Eccentricity:    0.0010350
Arg of perigee:   223.0975 deg
Mean anomaly:     136.9370 deg
Mean motion:   13.72777988 rev/day
Decay rate:        2.6e-07 rev/day^2
Epoch rev:           96232
Checksum:              335

Satellite: RS-15
Catalog number: 23439
Epoch time:      06249.96719557
Element set:    0974
Inclination:      064.8154 deg
RA of node:       104.9619 deg
Eccentricity:    0.0166430
Arg of perigee:   239.9712 deg
Mean anomaly:     118.4609 deg
Mean motion:   11.27551915 rev/day
Decay rate:       -3.9e-07 rev/day^2
Epoch rev:           48176
Checksum:              344

Satellite: FO-29
Catalog number: 24278
Epoch time:      06250.55556469
Element set:     312
Inclination:      098.5165 deg
RA of node:       243.7065 deg
Eccentricity:    0.0351408
Arg of perigee:   096.0459 deg
Mean anomaly:     268.0834 deg
Mean motion:   13.52923608 rev/day
Decay rate:       -5.6e-07 rev/day^2
Epoch rev:           49668
Checksum:              339

Satellite: SO-33
Catalog number: 25509
Epoch time:      06249.74305337
Element set:     737
Inclination:      031.4312 deg
RA of node:       028.2337 deg
Eccentricity:    0.0354782
Arg of perigee:   109.4464 deg
Mean anomaly:     254.4822 deg
Mean motion:   14.28115794 rev/day
Decay rate:       2.03e-06 rev/day^2
Epoch rev:           41070
Checksum:              289

Satellite: AO-40
Catalog number: 26609
Epoch time:      06247.67421211
Element set:     776
Inclination:      005.8847 deg
RA of node:       221.9825 deg
Eccentricity:    0.7967532
Arg of perigee:   198.5493 deg
Mean anomaly:     091.6004 deg
Mean motion:   01.25585834 rev/day
Decay rate:        3.0e-08 rev/day^2
Epoch rev:            2685
Checksum:              326

Satellite: VO-52
Catalog number: 28650
Epoch time:      06249.25670427
Element set:    0423
Inclination:      097.8665 deg
RA of node:       320.8295 deg
Eccentricity:    0.0028524
Arg of perigee:   097.9589 deg
Mean anomaly:     262.4850 deg
Mean motion:   14.81167793 rev/day
Decay rate:       3.67e-06 rev/day^2
Epoch rev:           07238
Checksum:              349

/EX
SB KEPS @ AMSAT  $ORB06250.D
Orbital Elements  06250.MICROS

HR AMSAT ORBITAL ELEMENTS FOR THE MICROSATS
FROM WA5QGD FORT WORTH,TX September 7, 2006
Send SUBSCRIBE KEPS/UNSUBSCRIBE KEPS to majordomo at amsat.org only
BID: ORB06250.D
TO ALL RADIO AMATEURS BT

Satellite: AO-16
Catalog number: 20439
Epoch time:      06249.63660782
Element set:     838
Inclination:      098.1892 deg
RA of node:       255.0052 deg
Eccentricity:    0.0010615
Arg of perigee:   317.2687 deg
Mean anomaly:     042.7665 deg
Mean motion:   14.31731832 rev/day
Decay rate:        9.0e-08 rev/day^2
Epoch rev:           86797
Checksum:              327

Satellite: WO-18
Catalog number: 20441
Epoch time:      06249.61902379
Element set:    0039
Inclination:      098.1879 deg
RA of node:       259.6120 deg
Eccentricity:    0.0011168
Arg of perigee:   316.9289 deg
Mean anomaly:     043.1015 deg
Mean motion:   14.31801602 rev/day
Decay rate:       -2.0e-07 rev/day^2
Epoch rev:           86803
Checksum:              291

Satellite: LO-19
Catalog number: 20442
Epoch time:      06250.63117341
Element set:     774
Inclination:      098.1883 deg
RA of node:       265.4596 deg
Eccentricity:    0.0011433
Arg of perigee:   313.1179 deg
Mean anomaly:     046.9058 deg
Mean motion:   14.31974828 rev/day
Decay rate:        2.7e-07 rev/day^2
Epoch rev:           86825
Checksum:              318

Satellite: UO-22
Catalog number: 21575
Epoch time:      06250.41462734
Element set:     792
Inclination:      098.3029 deg
RA of node:       205.5661 deg
Eccentricity:    0.0006990
Arg of perigee:   176.2289 deg
Mean anomaly:     183.8945 deg
Mean motion:   14.39561418 rev/day
Decay rate:        5.0e-07 rev/day^2
Epoch rev:           79484
Checksum:              329

Satellite: KO-23
Catalog number: 22077
Epoch time:      06250.62468642
Element set:     892
Inclination:      066.0859 deg
RA of node:       289.4020 deg
Eccentricity:    0.0005879
Arg of perigee:   336.0705 deg
Mean anomaly:     024.0032 deg
Mean motion:   12.86437871 rev/day
Decay rate:       -3.7e-07 rev/day^2
Epoch rev:           66114
Checksum:              303

Satellite: AO-27
Catalog number: 22825
Epoch time:      06249.51922043
Element set:     490
Inclination:      098.2910 deg
RA of node:       227.3876 deg
Eccentricity:    0.0009224
Arg of perigee:   025.8564 deg
Mean anomaly:     334.3075 deg
Mean motion:   14.29183125 rev/day
Decay rate:       1.39e-06 rev/day^2
Epoch rev:           67497
Checksum:              316

Satellite: IO-26
Catalog number: 22826
Epoch time:      06249.54515868
Element set:    0184
Inclination:      098.2853 deg
RA of node:       228.5929 deg
Eccentricity:    0.0009585
Arg of perigee:   023.7584 deg
Mean anomaly:     336.4046 deg
Mean motion:   14.29426506 rev/day
Decay rate:        7.0e-08 rev/day^2
Epoch rev:           67505
Checksum:              339

Satellite: PO-28
Catalog number: 22829
Epoch time:      06249.49951200
Element set:     464
Inclination:      098.2751 deg
RA of node:       229.7481 deg
Eccentricity:    0.0009878
Arg of perigee:   359.1161 deg
Mean anomaly:     001.0012 deg
Mean motion:   14.30122097 rev/day
Decay rate:        1.3e-07 rev/day^2
Epoch rev:           67526
Checksum:              295

