DECODE 2-LINE ELSETS WITH THE FOLLOWING KEY:
1 AAAAAU 00  0  0 BBBBB.BBBBBBBB  .CCCCCCCC  00000-0  00000-0 0  DDDZ
2 AAAAA EEE.EEEE FFF.FFFF GGGGGGG HHH.HHHH III.IIII JJ.JJJJJJJJKKKKKZ
KEY: A-CATALOGNUM B-EPOCHTIME C-DECAY D-ELSETNUM E-INCLINATION F-RAAN
G-ECCENTRICITY H-ARGPERIGEE I-MNANOM J-MNMOTION K-ORBITNUM Z-CHECKSUM

TO ALL RADIO AMATEURS BT

AO-07
1 07530U 74089B   06249.66898568 -.00000028  00000-0  10000-3 0 06767
2 07530 101.5610 290.5427 0012168 088.1493 272.0967 12.53571538455592
AO-10
1 14129U 83058B   06249.40150486 -.00000005  00000-0  10000-3 0  3118
2 14129 027.3317 317.0133 6029013 315.3720 009.7501 02.05867889174728
UO-11
1 14781U 84021B   06249.61509359  .00000416  00000-0  63030-4 0 01680
2 14781 098.2076 261.5628 0009536 010.2925 349.8476 14.79458973207802
RS-10/11
1 18129U 87054A   06249.59857817  .00000026  00000-0  11973-4 0 00956
2 18129 082.9231 267.9335 0010350 223.0975 136.9370 13.72777988962320
RS-15
1 23439U 94085A   06249.96719557 -.00000039  00000-0  10597-3 0 09748
2 23439 064.8154 104.9619 0166430 239.9712 118.4609 11.27551915481766
FO-29
1 24278U 96046B   06250.55556469 -.00000056  00000-0 -23780-4 0  3122
2 24278 098.5165 243.7065 0351408 096.0459 268.0834 13.52923608496683
SO-33
1 25509U 98061B   06249.74305337  .00000203  00000-0  29458-4 0  7375
2 25509 031.4312 028.2337 0354782 109.4464 254.4822 14.28115794410700
AO-40
1 26609U 00072B   06247.67421211  .00000003  00000-0  10000-3 0  7765
2 26609 005.8847 221.9825 7967532 198.5493 091.6004 01.25585834 26856
VO-52
1 28650U 05017B   06249.25670427  .00000367  00000-0  53671-4 0 04232
2 28650 097.8665 320.8295 0028524 097.9589 262.4850 14.81167793072385
AO-16
1 20439U 90005D   06249.63660782  .00000009  00000-0  18622-4 0  8385
2 20439 098.1892 255.0052 0010615 317.2687 042.7665 14.31731832867973
WO-18
1 20441U 90005F   06249.61902379 -.00000020  00000-0  76097-5 0 00395
2 20441 098.1879 259.6120 0011168 316.9289 043.1015 14.31801602868030
LO-19
1 20442U 90005G   06250.63117341  .00000027  00000-0  25158-4 0  7740
2 20442 098.1883 265.4596 0011433 313.1179 046.9058 14.31974828868253
UO-22
1 21575U 91050B   06250.41462734  .00000050  00000-0  29444-4 0  7922
2 21575 098.3029 205.5661 0006990 176.2289 183.8945 14.39561418794849
KO-23
1 22077U 92052B   06250.62468642 -.00000037  00000-0  10000-3 0  8924
2 22077 066.0859 289.4020 0005879 336.0705 024.0032 12.86437871661148
AO-27
1 22825U 93061C   06249.51922043  .00000139  00000-0  70867-4 0  4906
2 22825 098.2910 227.3876 0009224 025.8564 334.3075 14.29183125674976
IO-26
1 22826U 93061D   06249.54515868  .00000007  00000-0  18905-4 0 01842
2 22826 098.2853 228.5929 0009585 023.7584 336.4046 14.29426506675058
PO-28
1 22829U 93061G   06249.49951200  .00000013  00000-0  20971-4 0  4647
2 22829 098.2751 229.7481 0009878 359.1161 001.0012 14.30122097675267
